NORAD_CAT_ID,OBJECT_NAME,OBJECT_TYPE,EPOCH,MEAN_MOTION,ECCENTRICITY,INCLINATION,RA_OF_ASC_NODE,ARG_OF_PERICENTER,MEAN_ANOMALY,BSTAR,MEAN_MOTION_DOT,MEAN_MOTION_DDOT,TLE_LINE0,TLE_LINE1,TLE_LINE2,SEMIMAJOR_AXIS,PERIOD,APOGEE,PERIGEE,DECAYED
52301.0,STARLINK-3768,PAYLOAD,2023-09-02 19:03:01,15.08845007,0.0001308,53.2148,264.2054,96.8776,263.2365,6.3886e-05,7.29e-06,0.0,0 STARLINK-3768,1 52301U 22041AS  23245.79376622  .00000729  00000-0  63886-4 0  9991,2 52301  53.2148 264.2054 0001308  96.8776 263.2365 15.08845007 75786,6917.865,95.437,540.635,538.825,0.0
52301.0,STARLINK-3768,PAYLOAD,2023-09-03 01:24:34,15.08839193,0.0001427,53.2147,263.0163,95.8038,264.3117,7.5475e-06,-1.68e-06,0.0,0 STARLINK-3768,1 52301U 22041AS  23246.05873088 -.00000168  00000-0  75475-5 0  9995,2 52301  53.2147 263.0163 0001427  95.8038 264.3117 15.08839193 77031,6917.883,95.438,540.735,538.761,0.0
52301.0,STARLINK-3768,PAYLOAD,2023-09-03 12:32:15,15.08843768,0.000143,53.2159,260.9349,96.7641,263.3514,3.7206e-05,3.04e-06,0.0,0 STARLINK-3768,1 52301U 22041AS  23246.52240675  .00000304  00000-0  37206-4 0  9997,2 52301  53.2159 260.9349 0001430  96.7641 263.3514 15.08843768 75895,6917.869,95.437,540.723,538.745,0.0
52301.0,STARLINK-3768,PAYLOAD,2023-09-04 01:15:21,15.08834687,0.0001499,53.2162,258.5553,100.5845,259.5316,-7.3869e-05,-1.463e-05,0.0,0 STARLINK-3768,1 52301U 22041AS  23247.05233613 -.00001463  00000-0 -73869-4 0  9994,2 52301  53.2162 258.5553 0001499 100.5845 259.5316 15.08834687 77185,6917.897,95.438,540.799,538.725,0.0
52301.0,STARLINK-3768,PAYLOAD,2023-09-04 07:36:54,15.08833827,0.0001487,53.2162,257.3669,94.1484,265.9678,-7.4145e-05,-1.468e-05,0.0,0 STARLINK-3768,1 52301U 22041AS  23247.31729784 -.00001468  00000-0 -74145-4 0  9995,2 52301  53.2162 257.3669 0001487  94.1484 265.9678 15.08833827 76012,6917.899,95.438,540.793,538.736,0.0
52301.0,STARLINK-3768,PAYLOAD,2023-09-05 12:13:50,15.08838745,0.0001504,53.2165,252.0141,94.0349,266.0816,4.6169e-05,4.47e-06,0.0,0 STARLINK-3768,1 52301U 22041AS  23248.50961471  .00000447  00000-0  46169-4 0  9997,2 52301  53.2165 252.0141 0001504  94.0349 266.0816 15.08838745 76190,6917.884,95.438,540.79,538.709,0.0
52301.0,STARLINK-3768,PAYLOAD,2023-09-05 17:00:00,15.08835812,0.0001513,53.2167,251.1217,93.492,266.6246,2.2842e-05,7.6e-07,0.0,0 STARLINK-3768,1 52301U 22041AS  23248.70833778  .00000076  00000-0  22842-4 0  9997,2 52301  53.2167 251.1217 0001513  93.4920 266.6246 15.08835812 77437,6917.893,95.438,540.805,538.712,0.0
52301.0,STARLINK-3768,PAYLOAD,2023-09-06 10:29:14,15.0883928,0.0001439,53.2161,247.8508,93.9454,266.1703,0.0001062,1.403e-05,0.0,0 STARLINK-3768,1 52301U 22041AS  23249.43697549  .00001403  00000-0  10620-3 0  9997,2 52301  53.2161 247.8508 0001439  93.9454 266.1703 15.08839280 76334,6917.883,95.438,540.743,538.752,0.0
52301.0,STARLINK-3768,PAYLOAD,2023-09-06 16:50:47,15.08837595,0.0001409,53.216,246.661,90.8579,269.2575,8.2718e-05,1.029e-05,0.0,0 STARLINK-3768,1 52301U 22041AS  23249.70193779  .00001029  00000-0  82718-4 0  9995,2 52301  53.2160 246.6610 0001409  90.8579 269.2575 15.08837595 76377,6917.888,95.438,540.727,538.778,0.0
52301.0,STARLINK-3768,PAYLOAD,2023-09-07 07:09:16,15.08833103,0.0001461,53.216,243.9849,94.9066,265.2093,2.524e-05,1.14e-06,0.0,0 STARLINK-3768,1 52301U 22041AS  23250.29810403  .00000114  00000-0  25240-4 0  9992,2 52301  53.2160 243.9849 0001461  94.9066 265.2093 15.08833103 77671,6917.901,95.438,540.777,538.756,0.0
52301.0,STARLINK-3768,PAYLOAD,2023-09-07 11:55:25,15.08837726,0.0001497,53.2156,243.0929,96.6553,263.461,2.2945e-05,7.7e-07,0.0,0 STARLINK-3768,1 52301U 22041AS  23250.49682144  .00000077  00000-0  22945-4 0  9990,2 52301  53.2156 243.0929 0001497  96.6553 263.4610 15.08837726 76494,6917.887,95.438,540.788,538.717,0.0
52301.0,STARLINK-3768,PAYLOAD,2023-09-07 23:03:07,15.08839047,0.0001518,53.2155,241.0113,88.0019,272.1147,5.6321e-05,6.08e-06,0.0,0 STARLINK-3768,1 52301U 22041AS  23250.96050036  .00000608  00000-0  56321-4 0  9996,2 52301  53.2155 241.0113 0001518  88.0019 272.1147 15.08839047 77774,6917.883,95.438,540.798,538.698,0.0
52301.0,STARLINK-3768,PAYLOAD,2023-09-08 07:00:02,15.08848928,0.0001249,53.2167,239.5236,94.7369,265.3766,4.0432e-05,3.56e-06,0.0,0 STARLINK-3768,1 52301U 22041AS  23251.29169352  .00000356  00000-0  40432-4 0  9991,2 52301  53.2167 239.5236 0001249  94.7369 265.3766 15.08848928 77823,6917.853,95.437,540.582,538.854,0.0
52301.0,STARLINK-3768,PAYLOAD,2023-09-08 16:32:21,15.08840481,0.0001499,53.2162,237.7418,83.8322,276.2841,7.942e-05,9.76e-06,0.0,0 STARLINK-3768,1 52301U 22041AS  23251.68913744  .00000976  00000-0  79420-4 0  9993,2 52301  53.2162 237.7418 0001499  83.8322 276.2841 15.08840481 77882,6917.879,95.438,540.781,538.707,0.0
52301.0,STARLINK-3768,PAYLOAD,2023-09-09 05:15:26,15.08842709,0.0001446,53.2167,235.3617,85.7771,274.3387,4.6347e-05,4.5e-06,0.0,0 STARLINK-3768,1 52301U 22041AS  23252.21905699  .00000450  00000-0  46347-4 0  9992,2 52301  53.2167 235.3617 0001446  85.7771 274.3387 15.08842709 76757,6917.872,95.437,540.737,538.737,0.0
52301.0,STARLINK-3768,PAYLOAD,2023-09-10 01:55:27,15.08856271,0.0001386,53.2173,231.4974,81.0267,279.0882,-0.000182,-3.185e-05,0.0,0 STARLINK-3768,1 52301U 22041AS  23253.08017579 -.00003185  00000-0 -18200-3 0  9995,2 52301  53.2173 231.4974 0001386  81.0267 279.0882 15.08856271 78099,6917.831,95.437,540.654,538.737,0.0
52301.0,STARLINK-3768,PAYLOAD,2023-09-10 08:16:59,15.08845952,0.0001192,53.2166,230.3058,91.9606,268.1523,5.21e-06,-2.05e-06,0.0,0 STARLINK-3768,1 52301U 22041AS  23253.34513407 -.00000205  00000-0  52100-5 0  9993,2 52301  53.2166 230.3058 0001192  91.9606 268.1523 15.08845952 76929,6917.862,95.437,540.552,538.903,0.0
52301.0,STARLINK-3768,PAYLOAD,2023-09-11 01:46:15,15.08796841,0.0001303,53.2166,227.0347,105.9719,254.1416,0.00046772,7.155e-05,0.0,0 STARLINK-3768,1 52301U 22041AS  23254.07379422  .00007155  00000-0  46772-3 0  9997,2 52301  53.2166 227.0347 0001303 105.9719 254.1416 15.08796841 78243,6918.012,95.44,540.779,538.976,0.0
52301.0,STARLINK-3768,PAYLOAD,2023-09-11 04:57:01,15.08836227,0.0001368,53.2162,226.4402,92.6354,267.4794,-3.147e-06,-3.38e-06,0.0,0 STARLINK-3768,1 52301U 22041AS  23254.20626263 -.00000338  00000-0 -31470-5 0  9999,2 52301  53.2162 226.4402 0001368  92.6354 267.4794 15.08836227 78263,6917.892,95.438,540.703,538.811,0.0
52301.0,STARLINK-3768,PAYLOAD,2023-09-12 07:58:33,15.08846909,0.0001352,53.217,221.385,92.724,267.3907,9.4877e-05,1.223e-05,0.0,0 STARLINK-3768,1 52301U 22041AS  23255.33233463  .00001223  00000-0  94877-4 0  9991,2 52301  53.2170 221.3850 0001352  92.7240 267.3907 15.08846909 78433,6917.859,95.437,540.66,538.789,0.0
52301.0,STARLINK-3768,PAYLOAD,2023-09-13 01:27:49,15.08835761,0.0001387,53.2181,218.1161,93.2771,266.838,7.8935e-05,9.68e-06,0.0,0 STARLINK-3768,1 52301U 22041AS  23256.06098384  .00000968  00000-0  78935-4 0  9995,2 52301  53.2181 218.1161 0001387  93.2771 266.8380 15.08835761 78542,6917.893,95.438,540.718,538.799,0.0
52301.0,STARLINK-3768,PAYLOAD,2023-09-13 04:38:34,15.08849693,0.0001311,53.217,217.5193,95.1258,264.9884,0.00017733,2.536e-05,0.0,0 STARLINK-3768,1 52301U 22041AS  23256.19345290  .00002536  00000-0  17733-3 0  9991,2 52301  53.2170 217.5193 0001311  95.1258 264.9884 15.08849693 78565,6917.851,95.437,540.623,538.809,0.0
52301.0,STARLINK-3768,PAYLOAD,2023-09-13 22:07:50,15.0883624,0.0001167,53.2174,214.2485,88.4558,271.6567,-5.1843e-05,-1.113e-05,0.0,0 STARLINK-3768,1 52301U 22041AS  23256.92210970 -.00001113  00000-0 -51843-4 0  9991,2 52301  53.2174 214.2485 0001167  88.4558 271.6567 15.08836240 77469,6917.892,95.438,540.564,538.95,0.0
52301.0,STARLINK-3768,PAYLOAD,2023-09-14 01:18:36,15.08832749,0.0001287,53.2173,213.6536,85.8427,274.2713,-8.2656e-05,-1.603e-05,0.0,0 STARLINK-3768,1 52301U 22041AS  23257.05459339 -.00001603  00000-0 -82656-4 0  9990,2 52301  53.2173 213.6536 0001287  85.8427 274.2713 15.08832749 78695,6917.903,95.438,540.658,538.877,0.0
52301.0,STARLINK-3768,PAYLOAD,2023-09-15 02:44:46,15.08841015,0.0001298,53.2167,208.8941,92.3503,267.7638,-8.8752e-06,-4.29e-06,0.0,0 STARLINK-3768,1 52301U 22041AS  23258.11443016 -.00000429  00000-0 -88752-5 0  9992,2 52301  53.2167 208.8941 0001298  92.3503 267.7638 15.08841015 78851,6917.877,95.437,540.64,538.844,0.0
52301.0,STARLINK-3768,PAYLOAD,2023-09-15 07:30:56,15.08831509,0.000164,53.2173,208.0023,111.0054,249.1114,0.00027368,4.069e-05,0.0,0 STARLINK-3768,1 52301U 22041AS  23258.31314879  .00004069  00000-0  27368-3 0  9994,2 52301  53.2173 208.0023 0001640 111.0054 249.1114 15.08831509 77671,6917.906,95.438,540.906,538.637,0.0
52301.0,STARLINK-3768,PAYLOAD,2023-09-16 05:46:19,15.08848924,0.0001845,53.2171,203.8387,110.7899,249.3291,0.00022773,3.339e-05,0.0,0 STARLINK-3768,1 52301U 22041AS  23259.24049917  .00003339  00000-0  22773-3 0  9999,2 52301  53.2171 203.8387 0001845 110.7899 249.3291 15.08848924 79023,6917.853,95.437,540.994,538.442,0.0
52301.0,STARLINK-3768,PAYLOAD,2023-09-17 02:26:20,15.08841589,0.0001421,53.2179,199.9743,92.0745,268.0409,-6.6138e-06,-3.93e-06,0.0,0 STARLINK-3768,1 52301U 22041AS  23260.10163185 -.00000393  00000-0 -66138-5 0  9994,2 52301  53.2179 199.9743 0001421  92.0745 268.0409 15.08841589 79157,6917.876,95.437,540.724,538.758,0.0
52301.0,STARLINK-3768,PAYLOAD,2023-09-17 05:37:07,15.08844635,0.0001314,53.2171,199.3783,109.8375,250.2759,1.1005e-05,-1.13e-06,0.0,0 STARLINK-3768,1 52301U 22041AS  23260.23410918 -.00000113  00000-0  11005-4 0  9998,2 52301  53.2171 199.3783 0001314 109.8375 250.2759 15.08844635 77967,6917.866,95.437,540.64,538.822,0.0
52301.0,STARLINK-3768,PAYLOAD,2023-09-18 02:17:06,15.08859395,0.0001373,53.2175,195.5152,93.0147,267.1002,8.0109e-05,9.88e-06,0.0,0 STARLINK-3768,1 52301U 22041AS  23261.09521748  .00000988  00000-0  80109-4 0  9997,2 52301  53.2175 195.5152 0001373  93.0147 267.1002 15.08859395 79302,6917.821,95.436,540.636,538.736,0.0
